[{"OBJECT_NAME":"UTMN 2 (RS27S)","OBJECT_ID":"2023-091AP","EPOCH":"2026-03-09T23:09:07.917408","MEAN_MOTION":15.29495965,"ECCENTRICITY":0.00097379,"INCLINATION":97.5194,"RA_OF_ASC_NODE":134.949,"ARG_OF_PERICENTER":76.0788,"MEAN_ANOMALY":284.1534,"EPHEMERIS_TYPE":0,"CLASSIFICATION_TYPE":"U","NORAD_CAT_ID":57203,"ELEMENT_SET_NO":999,"REV_AT_EPOCH":14936,"BSTAR":0.00056135701,"MEAN_MOTION_DOT":0.00016013,"MEAN_MOTION_DDOT":0},{"OBJECT_NAME":"STARLINK-35687","OBJECT_ID":"2025-265J","EPOCH":"2026-03-09T21:59:05.638272","MEAN_MOTION":15.27605426,"ECCENTRICITY":0.00016374,"INCLINATION":43.0008,"RA_OF_ASC_NODE":277.0378,"ARG_OF_PERICENTER":295.7598,"MEAN_ANOMALY":64.3085,"EPHEMERIS_TYPE":0,"CLASSIFICATION_TYPE":"U","NORAD_CAT_ID":66524,"ELEMENT_SET_NO":999,"REV_AT_EPOCH":1714,"BSTAR":0.0013181707,"MEAN_MOTION_DOT":0.00036218,"MEAN_MOTION_DDOT":0}]
